[{"OBJECT_NAME":"STARLINK-31880","OBJECT_ID":"2024-084H","EPOCH":"2026-03-09T06:56:52.247904","MEAN_MOTION":15.27585034,"ECCENTRICITY":0.0001888,"INCLINATION":43.0046,"RA_OF_ASC_NODE":40.4529,"ARG_OF_PERICENTER":270.5346,"MEAN_ANOMALY":89.5289,"EPHEMERIS_TYPE":0,"CLASSIFICATION_TYPE":"U","NORAD_CAT_ID":59661,"ELEMENT_SET_NO":999,"REV_AT_EPOCH":10435,"BSTAR":1.5926467e-5,"MEAN_MOTION_DOT":1.76e-6,"MEAN_MOTION_DDOT":0},{"OBJECT_NAME":"OBJECT BD","OBJECT_ID":"2025-313BD","EPOCH":"2026-03-09T15:06:44.992224","MEAN_MOTION":15.3000236,"ECCENTRICITY":0.00072867,"INCLINATION":97.397,"RA_OF_ASC_NODE":145.285,"ARG_OF_PERICENTER":333.4514,"MEAN_ANOMALY":26.6352,"EPHEMERIS_TYPE":0,"CLASSIFICATION_TYPE":"U","NORAD_CAT_ID":67299,"ELEMENT_SET_NO":999,"REV_AT_EPOCH":1083,"BSTAR":0.0027633805,"MEAN_MOTION_DOT":0.0008101,"MEAN_MOTION_DDOT":0}]
